[{"OBJECT_NAME":"ONEWEB-0216","OBJECT_ID":"2021-045AL","EPOCH":"2026-01-12T06:32:30.509376","MEAN_MOTION":13.15549003,"ECCENTRICITY":0.00017697,"INCLINATION":87.9006,"RA_OF_ASC_NODE":290.3143,"ARG_OF_PERICENTER":70.2871,"MEAN_ANOMALY":289.8451,"EPHEMERIS_TYPE":0,"CLASSIFICATION_TYPE":"U","NORAD_CAT_ID":48801,"ELEMENT_SET_NO":999,"REV_AT_EPOCH":22380,"BSTAR":-2.410338e-5,"MEAN_MOTION_DOT":4.0e-8,"MEAN_MOTION_DDOT":0},{"OBJECT_NAME":"ONEWEB-0239","OBJECT_ID":"2021-045AM","EPOCH":"2026-01-12T06:39:19.944288","MEAN_MOTION":13.15546808,"ECCENTRICITY":0.00010256,"INCLINATION":87.9006,"RA_OF_ASC_NODE":290.3277,"ARG_OF_PERICENTER":47.2162,"MEAN_ANOMALY":312.9055,"EPHEMERIS_TYPE":0,"CLASSIFICATION_TYPE":"U","NORAD_CAT_ID":48802,"ELEMENT_SET_NO":999,"REV_AT_EPOCH":22384,"BSTAR":0.00013543101,"MEAN_MOTION_DOT":6.4e-7,"MEAN_MOTION_DDOT":0},{"OBJECT_NAME":"ONEWEB-0249","OBJECT_ID":"2021-060A","EPOCH":"2026-01-12T02:33:07.711200","MEAN_MOTION":13.1659426,"ECCENTRICITY":0.0001417,"INCLINATION":87.9032,"RA_OF_ASC_NODE":259.8554,"ARG_OF_PERICENTER":74.9748,"MEAN_ANOMALY":285.154,"EPHEMERIS_TYPE":0,"CLASSIFICATION_TYPE":"U","NORAD_CAT_ID":48967,"ELEMENT_SET_NO":999,"REV_AT_EPOCH":21907,"BSTAR":8.9460992e-5,"MEAN_MOTION_DOT":4.7e-7,"MEAN_MOTION_DDOT":0},{"OBJECT_NAME":"ONEWEB-0250","OBJECT_ID":"2021-060B","EPOCH":"2026-01-12T05:45:03.468672","MEAN_MOTION":13.258234,"ECCENTRICITY":9.502e-5,"INCLINATION":87.9029,"RA_OF_ASC_NODE":258.0944,"ARG_OF_PERICENTER":120.935,"MEAN_ANOMALY":239.1879,"EPHEMERIS_TYPE":0,"CLASSIFICATION_TYPE":"U","NORAD_CAT_ID":48968,"ELEMENT_SET_NO":999,"REV_AT_EPOCH":21955,"BSTAR":0.00025084962,"MEAN_MOTION_DOT":1.23e-6,"MEAN_MOTION_DDOT":0},{"OBJECT_NAME":"ONEWEB-0252","OBJECT_ID":"2021-060D","EPOCH":"2026-01-12T05:08:08.816352","MEAN_MOTION":13.16592932,"ECCENTRICITY":0.00016629,"INCLINATION":87.9033,"RA_OF_ASC_NODE":259.8273,"ARG_OF_PERICENTER":70.8043,"MEAN_ANOMALY":289.3268,"EPHEMERIS_TYPE":0,"CLASSIFICATION_TYPE":"U","NORAD_CAT_ID":48970,"ELEMENT_SET_NO":999,"REV_AT_EPOCH":21913,"BSTAR":0.00038225534,"MEAN_MOTION_DOT":1.59e-6,"MEAN_MOTION_DDOT":0},{"OBJECT_NAME":"ONEWEB-0253","OBJECT_ID":"2021-060E","EPOCH":"2026-01-12T03:02:46.395168","MEAN_MOTION":13.16594888,"ECCENTRICITY":0.00014004,"INCLINATION":87.9032,"RA_OF_ASC_NODE":259.8496,"ARG_OF_PERICENTER":71.2036,"MEAN_ANOMALY":288.9247,"EPHEMERIS_TYPE":0,"CLASSIFICATION_TYPE":"U","NORAD_CAT_ID":48971,"ELEMENT_SET_NO":999,"REV_AT_EPOCH":21905,"BSTAR":0.0003507042,"MEAN_MOTION_DOT":1.47e-6,"MEAN_MOTION_DDOT":0},{"OBJECT_NAME":"ONEWEB-0254","OBJECT_ID":"2021-060F","EPOCH":"2026-01-12T05:05:52.167840","MEAN_MOTION":13.16596245,"ECCENTRICITY":0.000113,"INCLINATION":87.9037,"RA_OF_ASC_NODE":259.8254,"ARG_OF_PERICENTER":69.3439,"MEAN_ANOMALY":290.7813,"EPHEMERIS_TYPE":0,"CLASSIFICATION_TYPE":"U","NORAD_CAT_ID":48972,"ELEMENT_SET_NO":999,"REV_AT_EPOCH":21906,"BSTAR":0.00039554351,"MEAN_MOTION_DOT":1.64e-6,"MEAN_MOTION_DDOT":0},{"OBJECT_NAME":"ONEWEB-0255","OBJECT_ID":"2021-060G","EPOCH":"2026-01-12T04:11:10.212000","MEAN_MOTION":13.16594914,"ECCENTRICITY":0.00013069,"INCLINATION":87.9031,"RA_OF_ASC_NODE":259.8461,"ARG_OF_PERICENTER":71.9655,"MEAN_ANOMALY":288.1619,"EPHEMERIS_TYPE":0,"CLASSIFICATION_TYPE":"U","NORAD_CAT_ID":48973,"ELEMENT_SET_NO":999,"REV_AT_EPOCH":21913,"BSTAR":-3.7082865e-5,"MEAN_MOTION_DOT":-1.0e-8,"MEAN_MOTION_DDOT":0},{"OBJECT_NAME":"ONEWEB-0256","OBJECT_ID":"2021-060H","EPOCH":"2026-01-12T02:59:20.024448","MEAN_MOTION":13.1659282,"ECCENTRICITY":0.00016252,"INCLINATION":87.9022,"RA_OF_ASC_NODE":259.863,"ARG_OF_PERICENTER":77.2998,"MEAN_ANOMALY":282.8314,"EPHEMERIS_TYPE":0,"CLASSIFICATION_TYPE":"U","NORAD_CAT_ID":48974,"ELEMENT_SET_NO":999,"REV_AT_EPOCH":21909,"BSTAR":0.00039002097,"MEAN_MOTION_DOT":1.62e-6,"MEAN_MOTION_DDOT":0},{"OBJECT_NAME":"ONEWEB-0257","OBJECT_ID":"2021-060J","EPOCH":"2026-01-12T05:35:30.986592","MEAN_MOTION":13.16594821,"ECCENTRICITY":0.00014409,"INCLINATION":87.9035,"RA_OF_ASC_NODE":259.8228,"ARG_OF_PERICENTER":70.3019,"MEAN_ANOMALY":289.8268,"EPHEMERIS_TYPE":0,"CLASSIFICATION_TYPE":"U","NORAD_CAT_ID":48975,"ELEMENT_SET_NO":999,"REV_AT_EPOCH":21906,"BSTAR":0.00011393708,"MEAN_MOTION_DOT":5.6e-7,"MEAN_MOTION_DDOT":0},{"OBJECT_NAME":"ONEWEB-0258","OBJECT_ID":"2021-060K","EPOCH":"2026-01-12T05:37:47.956512","MEAN_MOTION":13.1659457,"ECCENTRICITY":0.00014243,"INCLINATION":87.9028,"RA_OF_ASC_NODE":259.8359,"ARG_OF_PERICENTER":79.9261,"MEAN_ANOMALY":280.203,"EPHEMERIS_TYPE":0,"CLASSIFICATION_TYPE":"U","NORAD_CAT_ID":48976,"ELEMENT_SET_NO":999,"REV_AT_EPOCH":21907,"BSTAR":2.5216581e-5,"MEAN_MOTION_DOT":2.2e-7,"MEAN_MOTION_DDOT":0},{"OBJECT_NAME":"ONEWEB-0259","OBJECT_ID":"2021-060L","EPOCH":"2026-01-12T05:28:40.731744","MEAN_MOTION":13.16594574,"ECCENTRICITY":0.00013325,"INCLINATION":87.9037,"RA_OF_ASC_NODE":259.8334,"ARG_OF_PERICENTER":74.0363,"MEAN_ANOMALY":286.0915,"EPHEMERIS_TYPE":0,"CLASSIFICATION_TYPE":"U","NORAD_CAT_ID":48977,"ELEMENT_SET_NO":999,"REV_AT_EPOCH":21910,"BSTAR":-0.00010448294,"MEAN_MOTION_DOT":-2.7e-7,"MEAN_MOTION_DDOT":0},{"OBJECT_NAME":"ONEWEB-0260","OBJECT_ID":"2021-060M","EPOCH":"2026-01-12T05:16:07.582944","MEAN_MOTION":13.16593172,"ECCENTRICITY":0.00018702,"INCLINATION":87.9024,"RA_OF_ASC_NODE":259.8456,"ARG_OF_PERICENTER":71.3245,"MEAN_ANOMALY":288.8089,"EPHEMERIS_TYPE":0,"CLASSIFICATION_TYPE":"U","NORAD_CAT_ID":48978,"ELEMENT_SET_NO":999,"REV_AT_EPOCH":21908,"BSTAR":0.00028961056,"MEAN_MOTION_DOT":1.24e-6,"MEAN_MOTION_DDOT":0},{"OBJECT_NAME":"ONEWEB-0261","OBJECT_ID":"2021-060N","EPOCH":"2026-01-11T23:04:29.648064","MEAN_MOTION":13.16596545,"ECCENTRICITY":0.00013998,"INCLINATION":87.9022,"RA_OF_ASC_NODE":259.899,"ARG_OF_PERICENTER":61.2341,"MEAN_ANOMALY":298.893,"EPHEMERIS_TYPE":0,"CLASSIFICATION_TYPE":"U","NORAD_CAT_ID":48979,"ELEMENT_SET_NO":999,"REV_AT_EPOCH":21910,"BSTAR":-3.2810743e-5,"MEAN_MOTION_DOT":0,"MEAN_MOTION_DDOT":0},{"OBJECT_NAME":"ONEWEB-0262","OBJECT_ID":"2021-060P","EPOCH":"2026-01-12T04:04:19.284096","MEAN_MOTION":13.16594545,"ECCENTRICITY":0.00011995,"INCLINATION":87.9035,"RA_OF_ASC_NODE":259.8339,"ARG_OF_PERICENTER":79.0624,"MEAN_ANOMALY":281.0642,"EPHEMERIS_TYPE":0,"CLASSIFICATION_TYPE":"U","NORAD_CAT_ID":48980,"ELEMENT_SET_NO":999,"REV_AT_EPOCH":21909,"BSTAR":-2.132709e-6,"MEAN_MOTION_DOT":1.2e-7,"MEAN_MOTION_DDOT":0},{"OBJECT_NAME":"ONEWEB-0263","OBJECT_ID":"2021-060Q","EPOCH":"2026-01-12T03:00:28.886112","MEAN_MOTION":13.16594817,"ECCENTRICITY":0.00012762,"INCLINATION":87.9025,"RA_OF_ASC_NODE":259.8554,"ARG_OF_PERICENTER":62.8913,"MEAN_ANOMALY":297.2348,"EPHEMERIS_TYPE":0,"CLASSIFICATION_TYPE":"U","NORAD_CAT_ID":48981,"ELEMENT_SET_NO":999,"REV_AT_EPOCH":21905,"BSTAR":0.00035614824,"MEAN_MOTION_DOT":1.49e-6,"MEAN_MOTION_DDOT":0},{"OBJECT_NAME":"ONEWEB-0264","OBJECT_ID":"2021-060R","EPOCH":"2026-01-12T05:43:29.360928","MEAN_MOTION":13.16595772,"ECCENTRICITY":0.00015919,"INCLINATION":87.9028,"RA_OF_ASC_NODE":259.836,"ARG_OF_PERICENTER":68.1697,"MEAN_ANOMALY":291.9603,"EPHEMERIS_TYPE":0,"CLASSIFICATION_TYPE":"U","NORAD_CAT_ID":48982,"ELEMENT_SET_NO":999,"REV_AT_EPOCH":21907,"BSTAR":2.1140005e-5,"MEAN_MOTION_DOT":2.1e-7,"MEAN_MOTION_DDOT":0}]
