ONEWEB-0216             
1 48801U 21045AL  26012.27257534  .00000004  00000+0 -24103-4 0  9997
2 48801  87.9006 290.3143 0001769  70.2871 289.8451 13.15549003223806
ONEWEB-0239             
1 48802U 21045AM  26012.27731417  .00000064  00000+0  13543-3 0  9995
2 48802  87.9006 290.3277 0001025  47.2162 312.9055 13.15546808223849
ONEWEB-0249             
1 48967U 21060A   26012.10633925  .00000047  00000+0  89461-4 0  9995
2 48967  87.9032 259.8554 0001417  74.9748 285.1540 13.16594260219076
ONEWEB-0250             
1 48968U 21060B   26012.23962348  .00000123  00000+0  25085-3 0  9990
2 48968  87.9029 258.0944 0000950 120.9350 239.1879 13.25823400219557
ONEWEB-0252             
1 48970U 21060D   26012.21399093  .00000159  00000+0  38226-3 0  9992
2 48970  87.9033 259.8273 0001662  70.8043 289.3268 13.16592932219138
ONEWEB-0253             
1 48971U 21060E   26012.12692587  .00000147  00000+0  35070-3 0  9998
2 48971  87.9032 259.8496 0001400  71.2036 288.9247 13.16594888219057
ONEWEB-0254             
1 48972U 21060F   26012.21240935  .00000164  00000+0  39554-3 0  9995
2 48972  87.9037 259.8254 0001130  69.3439 290.7813 13.16596245219060
ONEWEB-0255             
1 48973U 21060G   26012.17442375 -.00000001  00000+0 -37083-4 0  9991
2 48973  87.9031 259.8461 0001306  71.9655 288.1619 13.16594914219133
ONEWEB-0256             
1 48974U 21060H   26012.12453732  .00000162  00000+0  39002-3 0  9994
2 48974  87.9022 259.8630 0001625  77.2998 282.8314 13.16592820219097
ONEWEB-0257             
1 48975U 21060J   26012.23299753  .00000056  00000+0  11394-3 0  9994
2 48975  87.9035 259.8228 0001440  70.3019 289.8268 13.16594821219063
ONEWEB-0258             
1 48976U 21060K   26012.23458283  .00000022  00000+0  25217-4 0  9993
2 48976  87.9028 259.8359 0001424  79.9261 280.2030 13.16594570219071
ONEWEB-0259             
1 48977U 21060L   26012.22824921 -.00000027  00000+0 -10448-3 0  9995
2 48977  87.9037 259.8334 0001332  74.0363 286.0915 13.16594574219106
ONEWEB-0260             
1 48978U 21060M   26012.21953221  .00000124  00000+0  28961-3 0  9996
2 48978  87.9024 259.8456 0001870  71.3245 288.8089 13.16593172219086
ONEWEB-0261             
1 48979U 21060N   26011.96145426  .00000000  00000+0 -32811-4 0  9992
2 48979  87.9022 259.8990 0001399  61.2341 298.8930 13.16596545219105
ONEWEB-0262             
1 48980U 21060P   26012.16966764  .00000012  00000+0 -21327-5 0  9997
2 48980  87.9035 259.8339 0001199  79.0624 281.0642 13.16594545219097
ONEWEB-0263             
1 48981U 21060Q   26012.12533433  .00000149  00000+0  35615-3 0  9990
2 48981  87.9025 259.8554 0001276  62.8913 297.2348 13.16594817219053
ONEWEB-0264             
1 48982U 21060R   26012.23853427  .00000021  00000+0  21140-4 0  9999
2 48982  87.9028 259.8360 0001591  68.1697 291.9603 13.16595772219078
